[
  {
    "name": "ONEWEB-0126",
    "noradId": "47272",
    "line1": "1 47272U 20100Q   26179.47819724  .00000023  00000+0  29800-4 0  9999",
    "line2": "2 47272  87.8947 348.4242 0001926  95.0645 265.0704 13.12442306266184"
  },
  {
    "name": "ONEWEB-0127",
    "noradId": "47273",
    "line1": "1 47273U 20100R   26179.52040873  .00000175  00000+0  45187-3 0  9990",
    "line2": "2 47273  87.8942 348.4142 0001935  96.1166 264.0183 13.12443408266217"
  },
  {
    "name": "ONEWEB-0128",
    "noradId": "47274",
    "line1": "1 47274U 20100S   26179.46619570  .00000437  00000+0  11784-2 0  9996",
    "line2": "2 47274  87.8943 348.4387 0001541  98.2552 261.8751 13.12441540266227"
  },
  {
    "name": "ONEWEB-0129",
    "noradId": "47275",
    "line1": "1 47275U 20100T   26179.52209700  .00000287  00000+0  76259-3 0  9996",
    "line2": "2 47275  87.8953 348.4026 0002802 107.7880 252.3555 13.12445166266168"
  },
  {
    "name": "ONEWEB-0130",
    "noradId": "47276",
    "line1": "1 47276U 20100U   26179.47297229  .00000208  00000+0  54177-3 0  9992",
    "line2": "2 47276  87.8953 348.4077 0001824  96.4922 263.6414 13.12440611266124"
  },
  {
    "name": "ONEWEB-0131",
    "noradId": "47277",
    "line1": "1 47277U 20100V   26179.54582335  .00000434  00000+0  11722-2 0  9995",
    "line2": "2 47277  87.8942 348.4102 0001682  96.9303 263.2017 13.12443494266174"
  },
  {
    "name": "ONEWEB-0132",
    "noradId": "47278",
    "line1": "1 47278U 20100W   26179.49836998 -.00000400  00000+0 -11461-2 0  9992",
    "line2": "2 47278  87.8946 348.4218 0001773  94.2585 265.8746 13.12442027266067"
  },
  {
    "name": "ONEWEB-0133",
    "noradId": "47279",
    "line1": "1 47279U 20100X   26179.51518390 -.00000007  00000+0 -53860-4 0  9993",
    "line2": "2 47279  87.8957 348.3959 0001667  94.9249 265.2070 13.12443875266221"
  },
  {
    "name": "ONEWEB-0134",
    "noradId": "47280",
    "line1": "1 47280U 20100Y   26179.48481756 -.00000152  00000+0 -45713-3 0  9994",
    "line2": "2 47280  87.8957 348.3988 0001821 101.7605 258.3728 13.12440435266198"
  },
  {
    "name": "ONEWEB-0135",
    "noradId": "47281",
    "line1": "1 47281U 20100Z   26179.45603002  .00000481  00000+0  13026-2 0  9996",
    "line2": "2 47281  87.8943 348.4261 0001705 102.4268 257.7051 13.12442650266219"
  },
  {
    "name": "ONEWEB-0136",
    "noradId": "47282",
    "line1": "1 47282U 20100AA  26179.55089759  .00000262  00000+0  69285-3 0  9991",
    "line2": "2 47282  87.8952 348.3894 0001835 103.5150 256.6183 13.12440952266157"
  },
  {
    "name": "ONEWEB-0137",
    "noradId": "47283",
    "line1": "1 47283U 20100AB  26179.50854438 -.00000142  00000+0 -42978-3 0  9990",
    "line2": "2 47283  87.8957 348.4085 0001934  89.6812 270.4539 13.12443811266050"
  },
  {
    "name": "ONEWEB-0138",
    "noradId": "47284",
    "line1": "1 47284U 20100AC  26179.48651680 -.00000262  00000+0 -76317-3 0  9999",
    "line2": "2 47284  87.8953 348.4178 0001884  99.9564 260.1778 13.12441089266137"
  },
  {
    "name": "ONEWEB-0139",
    "noradId": "47285",
    "line1": "1 47285U 20100AD  26179.52732783  .00000387  00000+0  10412-2 0  9998",
    "line2": "2 47285  87.8952 348.3961 0001853  94.0665 266.0676 13.12442709266211"
  },
  {
    "name": "ONEWEB-0140",
    "noradId": "47286",
    "line1": "1 47286U 20100AE  26179.48143530 -.00000089  00000+0 -28349-3 0  9990",
    "line2": "2 47286  87.8954 348.3961 0001641  93.5781 266.5535 13.12440284266172"
  },
  {
    "name": "ONEWEB-0141",
    "noradId": "47287",
    "line1": "1 47287U 20100AF  26179.52704758  .00000402  00000+0  10826-2 0  9998",
    "line2": "2 47287  87.8952 348.3921 0002056  87.2918 272.8446 13.12442909266166"
  },
  {
    "name": "ONEWEB-0142",
    "noradId": "47288",
    "line1": "1 47288U 20100AG  26179.51547497 -.00000003  00000+0 -44370-4 0  9995",
    "line2": "2 47288  87.8947 348.4152 0002248  94.2432 265.8954 13.12444730266159"
  },
  {
    "name": "ONEWEB-0143",
    "noradId": "47289",
    "line1": "1 47289U 20100AH  26179.44925545  .00000329  00000+0  87806-3 0  9991",
    "line2": "2 47289  87.8950 348.4277 0001845  92.5496 267.5844 13.12442768266128"
  },
  {
    "name": "ONEWEB-0144",
    "noradId": "47290",
    "line1": "1 47290U 20100AJ  26179.49667917 -.00000571  00000+0 -16237-2 0  9994",
    "line2": "2 47290  87.8958 348.3928 0002072 101.6831 258.4530 13.12443543266053"
  },
  {
    "name": "ONEWEB-0145",
    "noradId": "47291",
    "line1": "1 47291U 20100AK  26179.54412556  .00000528  00000+0  14320-2 0  9999",
    "line2": "2 47291  87.8946 348.4097 0001921  95.5403 264.5945 13.12441343266253"
  },
  {
    "name": "ONEWEB-0146",
    "noradId": "47292",
    "line1": "1 47292U 20100AL  26179.46450320  .00000457  00000+0  12346-2 0  9999",
    "line2": "2 47292  87.8954 348.4183 0001534  86.7917 273.3387 13.12441439266154"
  },
  {
    "name": "ONEWEB-0147",
    "noradId": "47293",
    "line1": "1 47293U 20100AM  26179.50685121 -.00000249  00000+0 -72662-3 0  9993",
    "line2": "2 47293  87.8957 348.3919 0001724  97.0781 263.0543 13.12443371266055"
  },
  {
    "name": "ONEWEB-0115",
    "noradId": "48042",
    "line1": "1 48042U 21025A   26179.37382808  .00000345  00000+0  90874-3 0  9994",
    "line2": "2 48042  87.8968 317.9963 0001771  97.5996 262.5335 13.13469807255061"
  },
  {
    "name": "ONEWEB-0152",
    "noradId": "48043",
    "line1": "1 48043U 21025B   26179.61589465  .00000200  00000+0  51299-3 0  9998",
    "line2": "2 48043  87.8975 317.9454 0001722  97.9536 262.1789 13.13470418255053"
  },
  {
    "name": "ONEWEB-0153",
    "noradId": "48044",
    "line1": "1 48044U 21025C   26179.36535081  .00000216  00000+0  55666-3 0  9995",
    "line2": "2 48044  87.8964 317.9974 0001925  97.8337 262.3011 13.13470745255011"
  },
  {
    "name": "ONEWEB-0154",
    "noradId": "48045",
    "line1": "1 48045U 21025D   26179.36196750  .00000224  00000+0  57809-3 0  9992",
    "line2": "2 48045  87.8971 317.9961 0001733 102.9808 257.1515 13.13469318254973"
  },
  {
    "name": "ONEWEB-0116",
    "noradId": "48046",
    "line1": "1 48046U 21025E   26179.62945412  .00001951  00000+0  53068-2 0  9999",
    "line2": "2 48046  87.8972 317.9398 0001780  98.6985 261.4346 13.13461691255155"
  },
  {
    "name": "ONEWEB-0150",
    "noradId": "48047",
    "line1": "1 48047U 21025F   26179.45338636  .00000293  00000+0  76685-3 0  9994",
    "line2": "2 48047  87.8972 317.9724 0001957  93.2784 266.8569 13.13470767255029"
  },
  {
    "name": "ONEWEB-0107",
    "noradId": "48048",
    "line1": "1 48048U 21025G   26179.60743424  .00000408  00000+0  10812-2 0  9994",
    "line2": "2 48048  87.8974 317.9376 0002134 101.4285 258.7084 13.13470682255029"
  },
  {
    "name": "ONEWEB-0101",
    "noradId": "48049",
    "line1": "1 48049U 21025H   26179.64637509 -.00000073  00000+0 -23576-3 0  9997",
    "line2": "2 48049  87.8963 317.9444 0001905 103.0943 257.0399 13.13472430255000"
  },
  {
    "name": "ONEWEB-0113",
    "noradId": "48050",
    "line1": "1 48050U 21025J   26179.43857311  .00000164  00000+0  41094-3 0  9995",
    "line2": "2 48050  87.8967 317.8950 0001833  94.1559 265.9780 13.13893407255081"
  },
  {
    "name": "ONEWEB-0112",
    "noradId": "48051",
    "line1": "1 48051U 21025K   26179.61250904  .00000233  00000+0  60226-3 0  9996",
    "line2": "2 48051  87.8975 317.9348 0001988 105.8666 254.2682 13.13470333255095"
  },
  {
    "name": "ONEWEB-0156",
    "noradId": "48052",
    "line1": "1 48052U 21025L   26179.62098439  .00000358  00000+0  94539-3 0  9993",
    "line2": "2 48052  87.8973 317.9432 0001782  99.3670 260.7660 13.13467840255077"
  },
  {
    "name": "ONEWEB-0161",
    "noradId": "48053",
    "line1": "1 48053U 21025M   26179.44321830  .00000210  00000+0  53926-3 0  9990",
    "line2": "2 48053  87.8970 317.9795 0002034  98.3251 261.8109 13.13471817254980"
  },
  {
    "name": "ONEWEB-0158",
    "noradId": "48054",
    "line1": "1 48054U 21025N   26179.63111717 -.00000146  00000+0 -43352-3 0  9995",
    "line2": "2 48054  87.8974 317.9394 0001649 102.6784 257.4530 13.13471805255135"
  },
  {
    "name": "ONEWEB-0157",
    "noradId": "48055",
    "line1": "1 48055U 21025P   26179.65652984 -.00000113  00000+0 -34469-3 0  9997",
    "line2": "2 48055  87.8970 317.9398 0002241 102.7452 257.3928 13.13471407255079"
  },
  {
    "name": "ONEWEB-0162",
    "noradId": "48056",
    "line1": "1 48056U 21025Q   26179.63268563 -.00000149  00000+0 -44408-3 0  9995",
    "line2": "2 48056  87.8969 317.9450 0001945  94.0953 266.0398 13.13470354255041"
  },
  {
    "name": "ONEWEB-0155",
    "noradId": "48057",
    "line1": "1 48057U 21025R   26179.41105544  .00000426  00000+0  11322-2 0  9995",
    "line2": "2 48057  87.8969 317.9853 0002561 113.1347 247.0052 13.13466712255155"
  },
  {
    "name": "ONEWEB-0149",
    "noradId": "48058",
    "line1": "1 48058U 21025S   26179.43307860 -.00001748  00000+0 -48217-2 0  9996",
    "line2": "2 48058  87.9000 317.9834 0001670  99.7167 260.4151 13.13466821254969"
  },
  {
    "name": "ONEWEB-0148",
    "noradId": "48059",
    "line1": "1 48059U 21025T   26179.62435427  .00000067  00000+0  14946-3 0  9993",
    "line2": "2 48059  87.8966 317.9530 0002300  87.5373 272.6020 13.13470746255117"
  },
  {
    "name": "ONEWEB-0160",
    "noradId": "48060",
    "line1": "1 48060U 21025U   26179.64127202 -.00000455  00000+0 -12822-2 0  9999",
    "line2": "2 48060  87.8966 317.9457 0001157  91.7651 268.3611 13.13469762255060"
  },
  {
    "name": "ONEWEB-0163",
    "noradId": "48061",
    "line1": "1 48061U 21025V   26179.62604221 -.00000029  00000+0 -11493-3 0  9990",
    "line2": "2 48061  87.8972 317.9439 0002139 102.3918 257.7450 13.13468681255189"
  },
  {
    "name": "ONEWEB-0159",
    "noradId": "48062",
    "line1": "1 48062U 21025W   26179.61758251  .00000242  00000+0  62849-3 0  9999",
    "line2": "2 48062  87.8976 317.9395 0002085 102.7513 257.3850 13.13469300255101"
  }
]